{
  "type": "FeatureCollection",
  "features": [
    {
      "type": "Feature",
      "properties": {
        "norad_id": 65731,
        "name": "1998-067XK",
        "group": "stations",
        "lat": 7.102547139713733,
        "lon": -81.28363791627976,
        "alt_km": 368.73647248104953,
        "timestamp": "2025-12-19T04:59:47.056890+00:00",
        "meta_object_name": "1998-067XK",
        "meta_object_id": "1998-067XK",
        "meta_epoch": "2025-12-18T14:29:38.955840",
        "meta_mean_motion": 15.66848038,
        "meta_eccentricity": 0.0004791,
        "meta_inclination": 51.6292,
        "meta_ra_of_asc_node": 107.4546,
        "meta_arg_of_pericenter": 283.3796,
        "meta_mean_anomaly": 76.6665,
        "meta_ephemeris_type": 0,
        "meta_classification_type": "U",
        "meta_norad_cat_id": 65731,
        "meta_element_set_no": 999,
        "meta_rev_at_epoch": 1406,
        "meta_bstar": 0.00083587979,
        "meta_mean_motion_dot": 0.00090673,
        "meta_mean_motion_ddot": 0,
        "tle_line1": "1 65731U 98067XK  25352.60392310  .00090673  00000+0  83588-3 0  9992",
        "tle_line2": "2 65731  51.6292 107.4546 0004791 283.3796  76.6665 15.66848038 14061"
      },
      "geometry": {
        "type": "Point",
        "coordinates": [
          -81.28363791627976,
          7.102547139713733
        ]
      }
    },
    {
      "type": "Feature",
      "properties": {
        "norad_id": 65732,
        "name": "RSP-03",
        "group": "stations",
        "lat": -26.92450554020777,
        "lon": -52.74188223165946,
        "alt_km": 360.82170860464794,
        "timestamp": "2025-12-19T04:59:47.056903+00:00",
        "meta_object_name": "RSP-03",
        "meta_object_id": "1998-067XL",
        "meta_epoch": "2025-12-18T12:48:30.107520",
        "meta_mean_motion": 15.70075461,
        "meta_eccentricity": 0.00056659,
        "meta_inclination": 51.6263,
        "meta_ra_of_asc_node": 106.9735,
        "meta_arg_of_pericenter": 289.7816,
        "meta_mean_anomaly": 70.257,
        "meta_ephemeris_type": 0,
        "meta_classification_type": "U",
        "meta_norad_cat_id": 65732,
        "meta_element_set_no": 999,
        "meta_rev_at_epoch": 1407,
        "meta_bstar": 0.00097504064,
        "meta_mean_motion_dot": 0.00121384,
        "meta_mean_motion_ddot": 0,
        "tle_line1": "1 65732U 98067XL  25352.53368180  .00121384  00000+0  97504-3 0  9990",
        "tle_line2": "2 65732  51.6263 106.9735 0005665 289.7816  70.2570 15.70075461 14071"
      },
      "geometry": {
        "type": "Point",
        "coordinates": [
          -52.74188223165946,
          -26.92450554020777
        ]
      }
    },
    {
      "type": "Feature",
      "properties": {
        "norad_id": 65733,
        "name": "GHS-01",
        "group": "stations",
        "lat": -46.893127937618964,
        "lon": 44.025710532594786,
        "alt_km": 337.04724240014184,
        "timestamp": "2025-12-19T04:59:47.056916+00:00",
        "meta_object_name": "GHS-01",
        "meta_object_id": "1998-067XM",
        "meta_epoch": "2025-12-18T21:41:04.642944",
        "meta_mean_motion": 15.77485683,
        "meta_eccentricity": 0.00079897,
        "meta_inclination": 51.6277,
        "meta_ra_of_asc_node": 103.4385,
        "meta_arg_of_pericenter": 320.4925,
        "meta_mean_anomaly": 39.5492,
        "meta_ephemeris_type": 0,
        "meta_classification_type": "U",
        "meta_norad_cat_id": 65733,
        "meta_element_set_no": 999,
        "meta_rev_at_epoch": 1415,
        "meta_bstar": 0.001190379,
        "meta_mean_motion_dot": 0.00206465,
        "meta_mean_motion_ddot": 0,
        "tle_line1": "1 65733U 98067XM  25352.90352596  .00206465  00000+0  11904-2 0  9999",
        "tle_line2": "2 65733  51.6277 103.4385 0007989 320.4925  39.5492 15.77485683 14153"
      },
      "geometry": {
        "type": "Point",
        "coordinates": [
          44.025710532594786,
          -46.893127937618964
        ]
      }
    },
    {
      "type": "Feature",
      "properties": {
        "norad_id": 65941,
        "name": "YOTSUBA-KULOVER",
        "group": "stations",
        "lat": 29.507624262665075,
        "lon": -99.20009818032786,
        "alt_km": 384.1355438638957,
        "timestamp": "2025-12-19T04:59:47.056926+00:00",
        "meta_object_name": "YOTSUBA-KULOVER",
        "meta_object_id": "1998-067XN",
        "meta_epoch": "2025-12-18T09:56:54.884832",
        "meta_mean_motion": 15.60208015,
        "meta_eccentricity": 0.00016606,
        "meta_inclination": 51.6285,
        "meta_ra_of_asc_node": 111.4386,
        "meta_arg_of_pericenter": 311.4961,
        "meta_mean_anomaly": 48.5889,
        "meta_ephemeris_type": 0,
        "meta_classification_type": "U",
        "meta_norad_cat_id": 65941,
        "meta_element_set_no": 999,
        "meta_rev_at_epoch": 1074,
        "meta_bstar": 0.0007945309,
        "meta_mean_motion_dot": 0.00066041,
        "meta_mean_motion_ddot": 0,
        "tle_line1": "1 65941U 98067XN  25352.41452413  .00066041  00000+0  79453-3 0  9993",
        "tle_line2": "2 65941  51.6285 111.4386 0001660 311.4961  48.5889 15.60208015 10748"
      },
      "geometry": {
        "type": "Point",
        "coordinates": [
          -99.20009818032786,
          29.507624262665075
        ]
      }
    },
    {
      "type": "Feature",
      "properties": {
        "norad_id": 65942,
        "name": "BOTAN",
        "group": "stations",
        "lat": -11.882967501884634,
        "lon": -63.82260546795619,
        "alt_km": 377.7967854902281,
        "timestamp": "2025-12-19T04:59:47.056937+00:00",
        "meta_object_name": "BOTAN",
        "meta_object_id": "1998-067XP",
        "meta_epoch": "2025-12-18T09:45:54.006048",
        "meta_mean_motion": 15.64050786,
        "meta_eccentricity": 0.00028482,
        "meta_inclination": 51.6278,
        "meta_ra_of_asc_node": 110.6371,
        "meta_arg_of_pericenter": 287.2475,
        "meta_mean_anomaly": 72.8208,
        "meta_ephemeris_type": 0,
        "meta_classification_type": "U",
        "meta_norad_cat_id": 65942,
        "meta_element_set_no": 999,
        "meta_rev_at_epoch": 1075,
        "meta_bstar": 0.0010814457,
        "meta_mean_motion_dot": 0.00105165,
        "meta_mean_motion_ddot": 0,
        "tle_line1": "1 65942U 98067XP  25352.40687507  .00105165  00000+0  10814-2 0  9993",
        "tle_line2": "2 65942  51.6278 110.6371 0002848 287.2475  72.8208 15.64050786 10755"
      },
      "geometry": {
        "type": "Point",
        "coordinates": [
          -63.82260546795619,
          -11.882967501884634
        ]
      }
    },
    {
      "type": "Feature",
      "properties": {
        "norad_id": 65943,
        "name": "E-KAGAKU-1",
        "group": "stations",
        "lat": 29.923442569235284,
        "lon": -99.68180973062003,
        "alt_km": 383.30601849533105,
        "timestamp": "2025-12-19T04:59:47.056949+00:00",
        "meta_object_name": "E-KAGAKU-1",
        "meta_object_id": "1998-067XQ",
        "meta_epoch": "2025-12-18T08:24:49.666176",
        "meta_mean_motion": 15.60193795,
        "meta_eccentricity": 0.00013451,
        "meta_inclination": 51.6302,
        "meta_ra_of_asc_node": 111.7666,
        "meta_arg_of_pericenter": 249.8249,
        "meta_mean_anomaly": 110.26,
        "meta_ephemeris_type": 0,
        "meta_classification_type": "U",
        "meta_norad_cat_id": 65943,
        "meta_element_set_no": 999,
        "meta_rev_at_epoch": 1073,
        "meta_bstar": 0.00084619625,
        "meta_mean_motion_dot": 0.00070368,
        "meta_mean_motion_ddot": 0,
        "tle_line1": "1 65943U 98067XQ  25352.35057484  .00070368  00000+0  84620-3 0  9996",
        "tle_line2": "2 65943  51.6302 111.7666 0001345 249.8249 110.2600 15.60193795 10732"
      },
      "geometry": {
        "type": "Point",
        "coordinates": [
          -99.68180973062003,
          29.923442569235284
        ]
      }
    },
    {
      "type": "Feature",
      "properties": {
        "norad_id": 66052,
        "name": "HRC MONOBLOCK CAMERA",
        "group": "stations",
        "lat": -3.4102972171513053,
        "lon": 106.5362274011454,
        "alt_km": 405.96526261035797,
        "timestamp": "2025-12-19T04:59:47.056960+00:00",
        "meta_object_name": "HRC MONOBLOCK CAMERA",
        "meta_object_id": "1998-067XR",
        "meta_epoch": "2025-12-18T22:50:37.822560",
        "meta_mean_motion": 15.54565744,
        "meta_eccentricity": 0.00026331,
        "meta_inclination": 51.6297,
        "meta_ra_of_asc_node": 110.5221,
        "meta_arg_of_pericenter": 211.9232,
        "meta_mean_anomaly": 148.16,
        "meta_ephemeris_type": 0,
        "meta_classification_type": "U",
        "meta_norad_cat_id": 66052,
        "meta_element_set_no": 999,
        "meta_rev_at_epoch": 980,
        "meta_bstar": 0.00046533518,
        "meta_mean_motion_dot": 0.00030942,
        "meta_mean_motion_ddot": 0,
        "tle_line1": "1 66052U 98067XR  25352.95182665  .00030942  00000+0  46534-3 0  9990",
        "tle_line2": "2 66052  51.6297 110.5221 0002633 211.9232 148.1600 15.54565744  9800"
      },
      "geometry": {
        "type": "Point",
        "coordinates": [
          106.5362274011454,
          -3.4102972171513053
        ]
      }
    }
  ]
}